start=new Date('2023-03-21T00:00:00.000Z').valueOf();
sats=[{"COUNTRY_CODE":"US","DECAY_DATE":null,"MEAN_ANOMALY":"287.8643","EPOCH":"2023-03-20T12:58:55.595136","MEAN_ELEMENT_THEORY":"SGP4","OBJECT_ID":"2021-040AA","SEMIMAJOR_AXIS":"6925.221","APOAPSIS":"548.044","RA_OF_ASC_NODE":"13.0098","ECCENTRICITY":"0.00013830","REF_FRAME":"TEME","INCLINATION":"53.0543","TLE_LINE2":"2 48452  53.0543  13.0098 0001383  72.2497 287.8643 15.06441681103077","PERIOD":"95.589","PERIAPSIS":"546.128","FILE":"3865912","OBJECT_NAME":"STARLINK-2703","CENTER_NAME":"EARTH","MEAN_MOTION_DDOT":"0.0000000000000","ELEMENT_SET_NO":"999","CLASSIFICATION_TYPE":"U","BSTAR":"0.00221790000000","GP_ID":"228515053","REV_AT_EPOCH":"10307","TIME_SYSTEM":"UTC","RCS_SIZE":"LARGE","NORAD_CAT_ID":"48452","SITE":"AFETR","MEAN_MOTION_DOT":"0.00032946","OBJECT_TYPE":"PAYLOAD","LAUNCH_DATE":"2021-05-09","ARG_OF_PERICENTER":"72.2497","TLE_LINE1":"1 48452U 21040AA  23079.54092124  .00032946  00000-0  22179-2 0  9995","MEAN_MOTION":"15.06441681","EPHEMERIS_TYPE":"0"},{"COUNTRY_CODE":"US","DECAY_DATE":null,"MEAN_ELEMENT_THEORY":"SGP4","MEAN_ANOMALY":"219.4895","EPOCH":"2023-03-20T12:53:38.843232","SEMIMAJOR_AXIS":"6925.286","OBJECT_ID":"2021-040AB","INCLINATION":"53.0539","REF_FRAME":"TEME","APOAPSIS":"547.839","ECCENTRICITY":"0.00009930","RA_OF_ASC_NODE":"13.0548","PERIOD":"95.591","TLE_LINE2":"2 48453  53.0539  13.0548 0000993 140.6166 219.4895 15.06420427103077","FILE":"3865912","PERIAPSIS":"546.463","OBJECT_NAME":"STARLINK-2620","CENTER_NAME":"EARTH","BSTAR":"0.00225780000000","MEAN_MOTION_DDOT":"0.0000000000000","ELEMENT_SET_NO":"999","CLASSIFICATION_TYPE":"U","TIME_SYSTEM":"UTC","REV_AT_EPOCH":"10307","GP_ID":"228514803","RCS_SIZE":"LARGE","NORAD_CAT_ID":"48453","MEAN_MOTION_DOT":"0.00033527","SITE":"AFETR","ARG_OF_PERICENTER":"140.6166","LAUNCH_DATE":"2021-05-09","OBJECT_TYPE":"PAYLOAD","EPHEMERIS_TYPE":"0","MEAN_MOTION":"15.06420427","TLE_LINE1":"1 48453U 21040AB  23079.53725513  .00033527  00000-0  22578-2 0  9999"},{"COUNTRY_CODE":"US","DECAY_DATE":null,"EPOCH":"2023-03-20T12:48:20.652768","MEAN_ANOMALY":"261.9794","MEAN_ELEMENT_THEORY":"SGP4","OBJECT_ID":"2021-040AC","SEMIMAJOR_AXIS":"6925.310","ECCENTRICITY":"0.00011970","APOAPSIS":"548.004","RA_OF_ASC_NODE":"13.0735","REF_FRAME":"TEME","INCLINATION":"53.0556","TLE_LINE2":"2 48454  53.0556  13.0735 0001197  98.1331 261.9794 15.06412720103070","PERIOD":"95.591","PERIAPSIS":"546.346","FILE":"3865912","OBJECT_NAME":"STARLINK-2654","CENTER_NAME":"EARTH","MEAN_MOTION_DDOT":"0.0000000000000","ELEMENT_SET_NO":"999","BSTAR":"0.00223410000000","CLASSIFICATION_TYPE":"U","REV_AT_EPOCH":"10307","GP_ID":"228515551","TIME_SYSTEM":"UTC","RCS_SIZE":"LARGE","NORAD_CAT_ID":"48454","SITE":"AFETR","MEAN_MOTION_DOT":"0.00033164","OBJECT_TYPE":"PAYLOAD","ARG_OF_PERICENTER":"98.1331","LAUNCH_DATE":"2021-05-09","TLE_LINE1":"1 48454U 21040AC  23079.53357237  .00033164  00000-0  22341-2 0  9999","MEAN_MOTION":"15.06412720","EPHEMERIS_TYPE":"0"},{"CENTER_NAME":"EARTH","MEAN_MOTION_DDOT":"0.0000000000000","CLASSIFICATION_TYPE":"U","ELEMENT_SET_NO":"999","BSTAR":"0.00210890000000","REV_AT_EPOCH":"10306","GP_ID":"228515800","TIME_SYSTEM":"UTC","RCS_SIZE":"LARGE","NORAD_CAT_ID":"48455","MEAN_MOTION_DOT":"0.00031279","SITE":"AFETR","ARG_OF_PERICENTER":"78.9918","LAUNCH_DATE":"2021-05-09","OBJECT_TYPE":"PAYLOAD","MEAN_MOTION":"15.06410105","TLE_LINE1":"1 48455U 21040AD  23079.52988343  .00031279  00000-0  21089-2 0  9990","EPHEMERIS_TYPE":"0","COUNTRY_CODE":"US","DECAY_DATE":null,"MEAN_ANOMALY":"281.1218","EPOCH":"2023-03-20T12:43:01.928352","MEAN_ELEMENT_THEORY":"SGP4","OBJECT_ID":"2021-040AD","SEMIMAJOR_AXIS":"6925.318","REF_FRAME":"TEME","APOAPSIS":"548.088","ECCENTRICITY":"0.00013070","RA_OF_ASC_NODE":"13.0885","INCLINATION":"53.0550","PERIOD":"95.591","TLE_LINE2":"2 48455  53.0550  13.0885 0001307  78.9918 281.1218 15.06410105103060","PERIAPSIS":"546.277","FILE":"3865912","OBJECT_NAME":"STARLINK-2497"},{"BSTAR":"0.00230070000000","MEAN_MOTION_DDOT":"0.0000000000000","CLASSIFICATION_TYPE":"U","ELEMENT_SET_NO":"999","GP_ID":"228514554","REV_AT_EPOCH":"10306","TIME_SYSTEM":"UTC","CENTER_NAME":"EARTH","OBJECT_TYPE":"PAYLOAD","LAUNCH_DATE":"2021-05-09","ARG_OF_PERICENTER":"110.6243","TLE_LINE1":"1 48456U 21040AE  23079.52620726  .00034156  00000-0  23007-2 0  9998","MEAN_MOTION":"15.06401904","EPHEMERIS_TYPE":"0","RCS_SIZE":"LARGE","NORAD_CAT_ID":"48456","SITE":"AFETR","MEAN_MOTION_DOT":"0.00034156","EPOCH":"2023-03-20T12:37:44.307264","MEAN_ANOMALY":"249.4910","MEAN_ELEMENT_THEORY":"SGP4","OBJECT_ID":"2021-040AE","SEMIMAJOR_AXIS":"6925.343","COUNTRY_CODE":"US","DECAY_DATE":null,"PERIAPSIS":"546.148","FILE":"3865912","OBJECT_NAME":"STARLINK-2508","RA_OF_ASC_NODE":"13.1052","APOAPSIS":"548.267","ECCENTRICITY":"0.00015300","REF_FRAME":"TEME","INCLINATION":"53.0548","PERIOD":"95.592","TLE_LINE2":"2 48456  53.0548  13.1052 0001530 110.6243 249.4910 15.06401904103061"},{"MEAN_ELEMENT_THEORY":"SGP4","EPOCH":"2023-03-20T12:55:38.857152","MEAN_ANOMALY":"244.0334","SEMIMAJOR_AXIS":"6925.289","OBJECT_ID":"2021-040AG","COUNTRY_CODE":"US","DECAY_DATE":null,"FILE":"3865912","PERIAPSIS":"546.052","OBJECT_NAME":"STARLINK-2698","INCLINATION":"53.0548","REF_FRAME":"TEME","APOAPSIS":"548.255","ECCENTRICITY":"0.00015910","RA_OF_ASC_NODE":"18.1360","PERIOD":"95.591","TLE_LINE2":"2 48458  53.0548  18.1360 0001591 116.0819 244.0334 15.06419546103710","MEAN_MOTION_DDOT":"0.0000000000000","ELEMENT_SET_NO":"999","CLASSIFICATION_TYPE":"U","BSTAR":"0.00212000000000","TIME_SYSTEM":"UTC","REV_AT_EPOCH":"10371","GP_ID":"228515303","CENTER_NAME":"EARTH","ARG_OF_PERICENTER":"116.0819","LAUNCH_DATE":"2021-05-09","OBJECT_TYPE":"PAYLOAD","EPHEMERIS_TYPE":"0","MEAN_MOTION":"15.06419546","TLE_LINE1":"1 48458U 21040AG  23079.53864418  .00031454  00000-0  21200-2 0  9990","NORAD_CAT_ID":"48458","RCS_SIZE":"LARGE","MEAN_MOTION_DOT":"0.00031454","SITE":"AFETR"},{"REV_AT_EPOCH":"10360","GP_ID":"228523101","TIME_SYSTEM":"UTC","BSTAR":"0.00183050000000","MEAN_MOTION_DDOT":"0.0000000000000","CLASSIFICATION_TYPE":"U","ELEMENT_SET_NO":"999","CENTER_NAME":"EARTH","TLE_LINE1":"1 48459U 21040AH  23079.53131034  .00027094  00000-0  18305-2 0  9999","MEAN_MOTION":"15.06406423","EPHEMERIS_TYPE":"0","OBJECT_TYPE":"PAYLOAD","LAUNCH_DATE":"2021-05-09","ARG_OF_PERICENTER":"110.5815","SITE":"AFETR","MEAN_MOTION_DOT":"0.00027094","NORAD_CAT_ID":"48459","RCS_SIZE":"LARGE","OBJECT_ID":"2021-040AH","SEMIMAJOR_AXIS":"6925.329","MEAN_ANOMALY":"249.5347","EPOCH":"2023-03-20T12:45:05.213376","MEAN_ELEMENT_THEORY":"SGP4","DECAY_DATE":null,"COUNTRY_CODE":"US","OBJECT_NAME":"STARLINK-2579","PERIAPSIS":"546.077","FILE":"3866029","PERIOD":"95.592","TLE_LINE2":"2 48459  53.0565  18.4413 0001613 110.5815 249.5347 15.06406423103604","ECCENTRICITY":"0.00016130","APOAPSIS":"548.311","RA_OF_ASC_NODE":"18.4413","REF_FRAME":"TEME","INCLINATION":"53.0565"},{"PERIAPSIS":"546.215","FILE":"3865912","OBJECT_NAME":"STARLINK-2582","APOAPSIS":"548.093","RA_OF_ASC_NODE":"17.9992","ECCENTRICITY":"0.00013560","REF_FRAME":"TEME","INCLINATION":"53.0544","TLE_LINE2":"2 48460  53.0544  17.9992 0001356 100.0024 260.1118 15.06419537103514","PERIOD":"95.591","MEAN_ANOMALY":"260.1118","EPOCH":"2023-03-20T13:11:33.562464","MEAN_ELEMENT_THEORY":"SGP4","OBJECT_ID":"2021-040AJ","SEMIMAJOR_AXIS":"6925.289","COUNTRY_CODE":"US","DECAY_DATE":null,"OBJECT_TYPE":"PAYLOAD","LAUNCH_DATE":"2021-05-09","ARG_OF_PERICENTER":"100.0024","TLE_LINE1":"1 48460U 21040AJ  23079.54969401  .00032630  00000-0  21982-2 0  9996","MEAN_MOTION":"15.06419537","EPHEMERIS_TYPE":"0","NORAD_CAT_ID":"48460","RCS_SIZE":"LARGE","SITE":"AFETR","MEAN_MOTION_DOT":"0.00032630","MEAN_MOTION_DDOT":"0.0000000000000","CLASSIFICATION_TYPE":"U","ELEMENT_SET_NO":"999","BSTAR":"0.00219820000000","REV_AT_EPOCH":"10351","GP_ID":"228516300","TIME_SYSTEM":"UTC","CENTER_NAME":"EARTH"},{"TIME_SYSTEM":"UTC","GP_ID":"228515054","REV_AT_EPOCH":"10296","CLASSIFICATION_TYPE":"U","MEAN_MOTION_DDOT":"0.0000000000000","BSTAR":"0.00004028300000","ELEMENT_SET_NO":"999","CENTER_NAME":"EARTH","EPHEMERIS_TYPE":"0","TLE_LINE1":"1 48461U 21040AK  23079.23269604  .00000319  00000-0  40283-4 0  9997","MEAN_MOTION":"15.06399529","OBJECT_TYPE":"PAYLOAD","LAUNCH_DATE":"2021-05-09","ARG_OF_PERICENTER":"94.6593","SITE":"AFETR","MEAN_MOTION_DOT":"0.00000319","NORAD_CAT_ID":"48461","RCS_SIZE":"LARGE","SEMIMAJOR_AXIS":"6925.350","OBJECT_ID":"2021-040AK","MEAN_ELEMENT_THEORY":"SGP4","MEAN_ANOMALY":"265.4567","EPOCH":"2023-03-20T05:35:04.937856","DECAY_DATE":null,"COUNTRY_CODE":"US","OBJECT_NAME":"STARLINK-2693","FILE":"3865912","PERIAPSIS":"546.180","TLE_LINE2":"2 48461  53.0535  19.4211 0001495  94.6593 265.4567 15.06399529102961","PERIOD":"95.592","INCLINATION":"53.0535","APOAPSIS":"548.250","RA_OF_ASC_NODE":"19.4211","ECCENTRICITY":"0.00014950","REF_FRAME":"TEME"},{"NORAD_CAT_ID":"48462","RCS_SIZE":"LARGE","SITE":"AFETR","MEAN_MOTION_DOT":"0.00030507","OBJECT_TYPE":"PAYLOAD","LAUNCH_DATE":"2021-05-09","ARG_OF_PERICENTER":"116.8706","TLE_LINE1":"1 48462U 21040AL  23079.54742510  .00030507  00000-0  20573-2 0  9994","MEAN_MOTION":"15.06414176","EPHEMERIS_TYPE":"0","CENTER_NAME":"EARTH","MEAN_MOTION_DDOT":"0.0000000000000","CLASSIFICATION_TYPE":"U","BSTAR":"0.00205730000000","ELEMENT_SET_NO":"999","GP_ID":"228514804","REV_AT_EPOCH":"10293","TIME_SYSTEM":"UTC","APOAPSIS":"547.949","RA_OF_ASC_NODE":"23.2892","ECCENTRICITY":"0.00011240","REF_FRAME":"TEME","INCLINATION":"53.0552","PERIOD":"95.591","TLE_LINE2":"2 48462  53.0552  23.2892 0001124 116.8706 243.2398 15.06414176102930","PERIAPSIS":"546.392","FILE":"3865912","OBJECT_NAME":"STARLINK-2683","COUNTRY_CODE":"US","DECAY_DATE":null,"EPOCH":"2023-03-20T13:08:17.528640","MEAN_ANOMALY":"243.2398","MEAN_ELEMENT_THEORY":"SGP4","OBJECT_ID":"2021-040AL","SEMIMAJOR_AXIS":"6925.305"}];
